ONEWEB-0517             
1 54135U 22138Y   23230.51634778  .00000056  00000+0  10823-3 0  9992
2 54135  87.9245 150.6687 0001568  82.8200 277.3111 13.19728448 41361
ONEWEB-0518             
1 54136U 22138Z   23231.14184739  .00000014  00000+0  29879-5 0  9997
2 54136  87.9243 150.5428 0001793  75.2366 284.8965 13.19724119 41441
ONEWEB-0519             
1 54137U 22138AA  23231.16711028  .00000089  00000+0  18905-3 0  9995
2 54137  87.9289 150.5299 0001519  86.5798 273.5508 13.19727760 41452
ONEWEB-0520             
1 54138U 22138AB  23231.27872332 -.00000238  00000+0 -62768-3 0  9998
2 54138  87.9248 150.5254 0001700  94.9344 265.1982 13.19725122 41454
ONEWEB-0521             
1 54139U 22138AC  23231.15869344  .00000039  00000+0  64242-4 0  9992
2 54139  87.9288 150.5307 0001774  68.8273 291.3049 13.19723460 41414
ONEWEB-0522             
1 54140U 22138AD  23231.21556591  .00000023  00000+0  24103-4 0  9993
2 54140  87.9288 150.5224 0001928  83.0063 277.1289 13.19725654 41438
ONEWEB-0523             
1 54141U 22138AE  23231.16292357  .00000054  00000+0  99651-4 0  9999
2 54141  87.9159 120.1250 0002808  59.5015 300.6395 13.20772958 43816
ONEWEB-0524             
1 54142U 22138AF  23231.15031407  .00000011  00000+0 -36979-5 0  9995
2 54142  87.9260 120.0800 0003086  83.7963 276.3521 13.20772862 43814
